{
  "type": "FeatureCollection",
  "features": [
    {
      "type": "Feature",
      "properties": {
        "id": "ca-site",
        "name": "CA SITE",
        "kind": "ca-site"
      },
      "geometry": {
        "type": "Polygon",
        "coordinates": [
          [
            [
              77.148145732,
              17.366818961
            ],
            [
              77.14836114,
              17.366846765
            ],
            [
              77.148320881,
              17.367130875
            ],
            [
              77.148105473,
              17.36710307
            ],
            [
              77.148145732,
              17.366818961
            ]
          ]
        ]
      }
    },
    {
      "type": "Feature",
      "properties": {
        "id": "park",
        "name": "PARK",
        "kind": "park"
      },
      "geometry": {
        "type": "Polygon",
        "coordinates": [
          [
            [
              77.148097904,
              17.367156483
            ],
            [
              77.148313312,
              17.367184287
            ],
            [
              77.148273053,
              17.367468397
            ],
            [
              77.148057645,
              17.367440593
            ],
            [
              77.148097904,
              17.367156483
            ]
          ]
        ]
      }
    }
  ]
}
