{
  "type": "FeatureCollection",
  "features": [
    {
      "type": "Feature",
      "properties": {
        "id": "layout-boundary",
        "name": "Bharat ASM Colony Layout",
        "kind": "boundary"
      },
      "geometry": {
        "type": "Polygon",
        "coordinates": [
          [
            [
              77.148692618,
              17.36587099
            ],
            [
              77.148706609,
              17.365872796
            ],
            [
              77.148718708,
              17.365887955
            ],
            [
              77.148438664,
              17.367864214
            ],
            [
              77.148443328,
              17.367864815
            ],
            [
              77.14841936,
              17.368033955
            ],
            [
              77.148403477,
              17.368045502
            ],
            [
              77.148389486,
              17.368043696
            ],
            [
              77.148390117,
              17.368039245
            ],
            [
              77.14834348,
              17.368033225
            ],
            [
              77.148344111,
              17.368028774
            ],
            [
              77.148297475,
              17.368022754
            ],
            [
              77.148298106,
              17.368018303
            ],
            [
              77.148256133,
              17.368012886
            ],
            [
              77.148256764,
              17.368008435
            ],
            [
              77.148210127,
              17.368002415
            ],
            [
              77.148210758,
              17.367997964
            ],
            [
              77.148168785,
              17.367992546
            ],
            [
              77.148169416,
              17.367988095
            ],
            [
              77.14812278,
              17.367982075
            ],
            [
              77.14812341,
              17.367977624
            ],
            [
              77.148076774,
              17.367971604
            ],
            [
              77.148077405,
              17.367967153
            ],
            [
              77.148035432,
              17.367961736
            ],
            [
              77.148036063,
              17.367957285
            ],
            [
              77.147819395,
              17.367911188
            ],
            [
              77.147807296,
              17.367896029
            ],
            [
              77.14795439,
              17.366790968
            ],
            [
              77.147929561,
              17.366765101
            ],
            [
              77.147930823,
              17.366756199
            ],
            [
              77.14789856,
              17.366715775
            ],
            [
              77.147904236,
              17.366675716
            ],
            [
              77.147899572,
              17.366675114
            ],
            [
              77.147974514,
              17.366045712
            ],
            [
              77.14800565,
              17.366027069
            ],
            [
              77.148034262,
              17.36602623
            ],
            [
              77.148044851,
              17.366018532
            ],
            [
              77.148098043,
              17.3660118
            ],
            [
              77.148133212,
              17.36599821
            ],
            [
              77.148166488,
              17.365997973
            ],
            [
              77.148172413,
              17.365989673
            ],
            [
              77.148250185,
              17.365977049
            ],
            [
              77.148285353,
              17.365963459
            ],
            [
              77.148313966,
              17.36596262
            ],
            [
              77.148349134,
              17.365949029
            ],
            [
              77.148377746,
              17.36594819
            ],
            [
              77.148388335,
              17.365940492
            ],
            [
              77.148466107,
              17.365927868
            ],
            [
              77.148476696,
              17.36592017
            ],
            [
              77.14849535,
              17.365922578
            ],
            [
              77.148507449,
              17.365937737
            ],
            [
              77.148503665,
              17.365964443
            ],
            [
              77.148531016,
              17.365972506
            ],
            [
              77.14855055,
              17.366002222
            ],
            [
              77.148563795,
              17.365908751
            ],
            [
              77.148579678,
              17.365897204
            ],
            [
              77.148642828,
              17.365887225
            ],
            [
              77.148653417,
              17.365879527
            ],
            [
              77.148682029,
              17.365878688
            ],
            [
              77.148692618,
              17.36587099
            ]
          ]
        ]
      }
    }
  ]
}
